{"spkid": "50608646", "covariance": {"labels": ["e", "q", "tp", "node", "peri", "i"], "data": [["5.455379403078644E-12", "-5.956739351748386E-12", "-7.394377039314249E-11", "2.293059090927511E-12", "-7.585193960094861E-10", "1.526730907159406E-10"], ["-5.956739351748386E-12", "6.504176392433261E-12", "8.074829374701679E-11", "-2.502946244775728E-12", "8.282330395741706E-10", "-1.667036928673646E-10"], ["-7.394377039314249E-11", "8.074829374701679E-11", "8.528463505175514E-9", "7.987612373186669E-10", "1.604606779902263E-8", "-3.424233405676877E-9"], ["2.293059090927511E-12", "-2.502946244775728E-12", "7.987612373186669E-10", "1.280772220022317E-10", "2.820985561116411E-10", "-5.856014614087741E-11"], ["-7.585193960094861E-10", "8.282330395741706E-10", "1.604606779902263E-8", "2.820985561116411E-10", "1.099218245923394E-7", "-2.229639271814976E-8"], ["1.526730907159406E-10", "-1.667036928673646E-10", "-3.424233405676877E-9", "-5.856014614087741E-11", "-2.229639271814976E-8", "4.618404586346935E-9"]], "elements": [{"label": "e", "sigma": 2.33567536337537e-06, "name": "e", "title": "eccentricity", "value": ".2494993388676429", "units": null}, {"label": "q", "units": "au", "value": ".8209552853865916", "title": "perihelion distance", "sigma": 2.5503286832158e-06, "name": "q"}, {"units": "TDB", "title": "time of perihelion passage", "value": "2457783.341567968120", "sigma": 9.23496805905441e-05, "name": "tp", "label": "tp"}, {"label": "node", "name": "om", "sigma": 1.13171207470024e-05, "units": "deg", "value": "171.2768282835012", "title": "longitude of the ascending node"}, {"units": "deg", "title": "argument of perihelion", "value": "89.45829803461859", "name": "w", "sigma": 0.000331544604227454, "label": "peri"}, {"label": "i", "name": "i", "sigma": 6.79588447985024e-05, "units": "deg", "value": "8.003637811240237", "title": "inclination"}], "epoch": "2457859.5"}, "elements": [{"label": "e", "name": "e", "sigma": "2.3232E-6", "units": null, "value": ".2495815202585066", "title": "eccentricity"}, {"label": "a", "units": "au", "value": "1.094584675361084", "title": "semi-major axis", "name": "a", "sigma": "4.1798E-8"}, {"label": "q", "units": "au", "title": "perihelion distance", "value": ".8213965680328007", "name": "q", "sigma": "2.5743E-6"}, {"name": "i", "sigma": "6.8033E-5", "value": "8.006281303283247", "title": "inclination; angle with respect to x-y ecliptic plane", "units": "deg", "label": "i"}, {"label": "node", "name": "om", "sigma": "1.1225E-5", "units": "deg", "title": "longitude of the ascending node", "value": "171.1935631224594"}, {"label": "peri", "sigma": ".00032619", "name": "w", "title": "argument of perihelion", "value": "89.8497089449468", "units": "deg"}, {"label": "M", "units": "deg", "title": "mean anomaly", "value": "61.99706547789069", "name": "ma", "sigma": ".0001572"}, {"units": "TDB", "value": "2461128.465407312125", "title": "time of perihelion passage", "name": "tp", "sigma": ".00017905", "label": "tp"}, {"label": "period", "sigma": "2.3959E-5", "name": "per", "units": "d", "title": "sidereal orbital period", "value": "418.2851747536824"}, {"label": "n", "name": "n", "sigma": "4.9298E-8", "value": ".860656847835917", "title": "mean motion", "units": "deg/d"}, {"units": "au", "title": "aphelion distance", "value": "1.367772782689367", "sigma": "5.2231E-8", "name": "ad", "label": "Q"}], "epoch": "2461200.5"}